{"type": "FeatureCollection", "features": [{"type": "Feature", "properties": {"id": "ADM11", "name": "Teaching District 1-1", "population": 32428, "cases": 78, "rate_per_10k": 24.1}, "geometry": {"type": "Polygon", "coordinates": [[[-78.9, 35.0], [-78.5, 35.03], [-78.52000000000001, 35.28], [-78.88000000000001, 35.3], [-78.9, 35.0]]]}}, {"type": "Feature", "properties": {"id": "ADM21", "name": "Teaching District 2-1", "population": 41714, "cases": 115, "rate_per_10k": 27.6}, "geometry": {"type": "Polygon", "coordinates": [[[-78.45, 35.0], [-78.05, 35.03], [-78.07000000000001, 35.28], [-78.43, 35.3], [-78.45, 35.0]]]}}, {"type": "Feature", "properties": {"id": "ADM31", "name": "Teaching District 3-1", "population": 52183, "cases": 97, "rate_per_10k": 18.6}, "geometry": {"type": "Polygon", "coordinates": [[[-78.0, 35.0], [-77.6, 35.03], [-77.62, 35.28], [-77.98, 35.3], [-78.0, 35.0]]]}}, {"type": "Feature", "properties": {"id": "ADM41", "name": "Teaching District 4-1", "population": 59312, "cases": 146, "rate_per_10k": 24.6}, "geometry": {"type": "Polygon", "coordinates": [[[-77.55000000000001, 35.0], [-77.15, 35.03], [-77.17000000000002, 35.28], [-77.53000000000002, 35.3], [-77.55000000000001, 35.0]]]}}, {"type": "Feature", "properties": {"id": "ADM51", "name": "Teaching District 5-1", "population": 72392, "cases": 195, "rate_per_10k": 26.9}, "geometry": {"type": "Polygon", "coordinates": [[[-77.10000000000001, 35.0], [-76.7, 35.03], [-76.72000000000001, 35.28], [-77.08000000000001, 35.3], [-77.10000000000001, 35.0]]]}}, {"type": "Feature", "properties": {"id": "ADM12", "name": "Teaching District 1-2", "population": 41721, "cases": 114, "rate_per_10k": 27.3}, "geometry": {"type": "Polygon", "coordinates": [[[-78.85000000000001, 35.32], [-78.45, 35.35], [-78.47000000000001, 35.6], [-78.83000000000001, 35.62], [-78.85000000000001, 35.32]]]}}, {"type": "Feature", "properties": {"id": "ADM22", "name": "Teaching District 2-2", "population": 48425, "cases": 106, "rate_per_10k": 21.9}, "geometry": {"type": "Polygon", "coordinates": [[[-78.4, 35.32], [-78.0, 35.35], [-78.02000000000001, 35.6], [-78.38000000000001, 35.62], [-78.4, 35.32]]]}}, {"type": "Feature", "properties": {"id": "ADM32", "name": "Teaching District 3-2", "population": 58106, "cases": 150, "rate_per_10k": 25.8}, "geometry": {"type": "Polygon", "coordinates": [[[-77.95, 35.32], [-77.55, 35.35], [-77.57000000000001, 35.6], [-77.93, 35.62], [-77.95, 35.32]]]}}, {"type": "Feature", "properties": {"id": "ADM42", "name": "Teaching District 4-2", "population": 70595, "cases": 177, "rate_per_10k": 25.1}, "geometry": {"type": "Polygon", "coordinates": [[[-77.50000000000001, 35.32], [-77.10000000000001, 35.35], [-77.12000000000002, 35.6], [-77.48000000000002, 35.62], [-77.50000000000001, 35.32]]]}}, {"type": "Feature", "properties": {"id": "ADM52", "name": "Teaching District 5-2", "population": 80748, "cases": 188, "rate_per_10k": 23.3}, "geometry": {"type": "Polygon", "coordinates": [[[-77.05000000000001, 35.32], [-76.65, 35.35], [-76.67000000000002, 35.6], [-77.03000000000002, 35.62], [-77.05000000000001, 35.32]]]}}, {"type": "Feature", "properties": {"id": "ADM13", "name": "Teaching District 1-3", "population": 47341, "cases": 93, "rate_per_10k": 19.6}, "geometry": {"type": "Polygon", "coordinates": [[[-78.9, 35.64], [-78.5, 35.67], [-78.52000000000001, 35.92], [-78.88000000000001, 35.94], [-78.9, 35.64]]]}}, {"type": "Feature", "properties": {"id": "ADM23", "name": "Teaching District 2-3", "population": 58573, "cases": 131, "rate_per_10k": 22.4}, "geometry": {"type": "Polygon", "coordinates": [[[-78.45, 35.64], [-78.05, 35.67], [-78.07000000000001, 35.92], [-78.43, 35.94], [-78.45, 35.64]]]}}, {"type": "Feature", "properties": {"id": "ADM33", "name": "Teaching District 3-3", "population": 68895, "cases": 193, "rate_per_10k": 28.0}, "geometry": {"type": "Polygon", "coordinates": [[[-78.0, 35.64], [-77.6, 35.67], [-77.62, 35.92], [-77.98, 35.94], [-78.0, 35.64]]]}}, {"type": "Feature", "properties": {"id": "ADM43", "name": "Teaching District 4-3", "population": 73572, "cases": 156, "rate_per_10k": 21.2}, "geometry": {"type": "Polygon", "coordinates": [[[-77.55000000000001, 35.64], [-77.15, 35.67], [-77.17000000000002, 35.92], [-77.53000000000002, 35.94], [-77.55000000000001, 35.64]]]}}, {"type": "Feature", "properties": {"id": "ADM53", "name": "Teaching District 5-3", "population": 84584, "cases": 240, "rate_per_10k": 28.4}, "geometry": {"type": "Polygon", "coordinates": [[[-77.10000000000001, 35.64], [-76.7, 35.67], [-76.72000000000001, 35.92], [-77.08000000000001, 35.94], [-77.10000000000001, 35.64]]]}}, {"type": "Feature", "properties": {"id": "ADM14", "name": "Teaching District 1-4", "population": 53835, "cases": 124, "rate_per_10k": 23.0}, "geometry": {"type": "Polygon", "coordinates": [[[-78.85000000000001, 35.96], [-78.45, 35.99], [-78.47000000000001, 36.24], [-78.83000000000001, 36.26], [-78.85000000000001, 35.96]]]}}, {"type": "Feature", "properties": {"id": "ADM24", "name": "Teaching District 2-4", "population": 62759, "cases": 161, "rate_per_10k": 25.7}, "geometry": {"type": "Polygon", "coordinates": [[[-78.4, 35.96], [-78.0, 35.99], [-78.02000000000001, 36.24], [-78.38000000000001, 36.26], [-78.4, 35.96]]]}}, {"type": "Feature", "properties": {"id": "ADM34", "name": "Teaching District 3-4", "population": 72034, "cases": 169, "rate_per_10k": 23.5}, "geometry": {"type": "Polygon", "coordinates": [[[-77.95, 35.96], [-77.55, 35.99], [-77.57000000000001, 36.24], [-77.93, 36.26], [-77.95, 35.96]]]}}, {"type": "Feature", "properties": {"id": "ADM44", "name": "Teaching District 4-4", "population": 82390, "cases": 249, "rate_per_10k": 30.2}, "geometry": {"type": "Polygon", "coordinates": [[[-77.50000000000001, 35.96], [-77.10000000000001, 35.99], [-77.12000000000002, 36.24], [-77.48000000000002, 36.26], [-77.50000000000001, 35.96]]]}}, {"type": "Feature", "properties": {"id": "ADM54", "name": "Teaching District 5-4", "population": 93697, "cases": 284, "rate_per_10k": 30.3}, "geometry": {"type": "Polygon", "coordinates": [[[-77.05000000000001, 35.96], [-76.65, 35.99], [-76.67000000000002, 36.24], [-77.03000000000002, 36.26], [-77.05000000000001, 35.96]]]}}]}