{"type": "FeatureCollection", "features": [{"type": "Feature", "properties": {"id": "HF_001", "name": "Community Health Facility 001", "type": "urgent_care", "beds": 25}, "geometry": {"type": "Point", "coordinates": [-78.82113, 35.2106]}}, {"type": "Feature", "properties": {"id": "HF_002", "name": "Community Health Facility 002", "type": "clinic", "beds": 25}, "geometry": {"type": "Point", "coordinates": [-78.60229, 35.14154]}}, {"type": "Feature", "properties": {"id": "HF_003", "name": "Community Health Facility 003", "type": "clinic", "beds": 12}, "geometry": {"type": "Point", "coordinates": [-78.65857, 35.1531]}}, {"type": "Feature", "properties": {"id": "HF_004", "name": "Community Health Facility 004", "type": "hospital", "beds": 120}, "geometry": {"type": "Point", "coordinates": [-78.17346, 35.14128]}}, {"type": "Feature", "properties": {"id": "HF_005", "name": "Community Health Facility 005", "type": "hospital", "beds": 0}, "geometry": {"type": "Point", "coordinates": [-77.85414, 35.1188]}}, {"type": "Feature", "properties": {"id": "HF_006", "name": "Community Health Facility 006", "type": "clinic", "beds": 12}, "geometry": {"type": "Point", "coordinates": [-77.76151, 35.14316]}}, {"type": "Feature", "properties": {"id": "HF_007", "name": "Community Health Facility 007", "type": "hospital", "beds": 12}, "geometry": {"type": "Point", "coordinates": [-77.72416, 35.2048]}}, {"type": "Feature", "properties": {"id": "HF_008", "name": "Community Health Facility 008", "type": "pharmacy", "beds": 60}, "geometry": {"type": "Point", "coordinates": [-77.43446, 35.26534]}}, {"type": "Feature", "properties": {"id": "HF_009", "name": "Community Health Facility 009", "type": "clinic", "beds": 25}, "geometry": {"type": "Point", "coordinates": [-77.3137, 35.23771]}}, {"type": "Feature", "properties": {"id": "HF_010", "name": "Community Health Facility 010", "type": "clinic", "beds": 0}, "geometry": {"type": "Point", "coordinates": [-76.85021, 35.1668]}}, {"type": "Feature", "properties": {"id": "HF_011", "name": "Community Health Facility 011", "type": "pharmacy", "beds": 120}, "geometry": {"type": "Point", "coordinates": [-76.92021, 35.21219]}}, {"type": "Feature", "properties": {"id": "HF_012", "name": "Community Health Facility 012", "type": "urgent_care", "beds": 0}, "geometry": {"type": "Point", "coordinates": [-78.70234, 35.52216]}}, {"type": "Feature", "properties": {"id": "HF_013", "name": "Community Health Facility 013", "type": "hospital", "beds": 60}, "geometry": {"type": "Point", "coordinates": [-78.65007, 35.535]}}, {"type": "Feature", "properties": {"id": "HF_014", "name": "Community Health Facility 014", "type": "hospital", "beds": 120}, "geometry": {"type": "Point", "coordinates": [-78.69279, 35.41234]}}, {"type": "Feature", "properties": {"id": "HF_015", "name": "Community Health Facility 015", "type": "hospital", "beds": 12}, "geometry": {"type": "Point", "coordinates": [-78.09225, 35.47812]}}, {"type": "Feature", "properties": {"id": "HF_016", "name": "Community Health Facility 016", "type": "hospital", "beds": 25}, "geometry": {"type": "Point", "coordinates": [-78.25788, 35.47524]}}, {"type": "Feature", "properties": {"id": "HF_017", "name": "Community Health Facility 017", "type": "clinic", "beds": 0}, "geometry": {"type": "Point", "coordinates": [-77.63888, 35.46688]}}, {"type": "Feature", "properties": {"id": "HF_018", "name": "Community Health Facility 018", "type": "pharmacy", "beds": 12}, "geometry": {"type": "Point", "coordinates": [-77.32194, 35.42645]}}, {"type": "Feature", "properties": {"id": "HF_019", "name": "Community Health Facility 019", "type": "pharmacy", "beds": 60}, "geometry": {"type": "Point", "coordinates": [-76.81884, 35.38046]}}, {"type": "Feature", "properties": {"id": "HF_020", "name": "Community Health Facility 020", "type": "urgent_care", "beds": 0}, "geometry": {"type": "Point", "coordinates": [-78.6892, 35.74985]}}, {"type": "Feature", "properties": {"id": "HF_021", "name": "Community Health Facility 021", "type": "urgent_care", "beds": 60}, "geometry": {"type": "Point", "coordinates": [-78.28393, 35.88953]}}, {"type": "Feature", "properties": {"id": "HF_022", "name": "Community Health Facility 022", "type": "hospital", "beds": 60}, "geometry": {"type": "Point", "coordinates": [-78.21932, 35.74416]}}, {"type": "Feature", "properties": {"id": "HF_023", "name": "Community Health Facility 023", "type": "urgent_care", "beds": 120}, "geometry": {"type": "Point", "coordinates": [-77.84105, 35.81189]}}, {"type": "Feature", "properties": {"id": "HF_024", "name": "Community Health Facility 024", "type": "clinic", "beds": 120}, "geometry": {"type": "Point", "coordinates": [-77.83691, 35.79207]}}, {"type": "Feature", "properties": {"id": "HF_025", "name": "Community Health Facility 025", "type": "urgent_care", "beds": 25}, "geometry": {"type": "Point", "coordinates": [-77.84774, 35.75301]}}, {"type": "Feature", "properties": {"id": "HF_026", "name": "Community Health Facility 026", "type": "hospital", "beds": 0}, "geometry": {"type": "Point", "coordinates": [-77.31179, 35.74831]}}, {"type": "Feature", "properties": {"id": "HF_027", "name": "Community Health Facility 027", "type": "urgent_care", "beds": 0}, "geometry": {"type": "Point", "coordinates": [-77.41862, 35.76188]}}, {"type": "Feature", "properties": {"id": "HF_028", "name": "Community Health Facility 028", "type": "urgent_care", "beds": 0}, "geometry": {"type": "Point", "coordinates": [-76.92129, 35.821]}}, {"type": "Feature", "properties": {"id": "HF_029", "name": "Community Health Facility 029", "type": "pharmacy", "beds": 0}, "geometry": {"type": "Point", "coordinates": [-76.88905, 35.7704]}}, {"type": "Feature", "properties": {"id": "HF_030", "name": "Community Health Facility 030", "type": "urgent_care", "beds": 0}, "geometry": {"type": "Point", "coordinates": [-76.99735, 35.73568]}}, {"type": "Feature", "properties": {"id": "HF_031", "name": "Community Health Facility 031", "type": "pharmacy", "beds": 25}, "geometry": {"type": "Point", "coordinates": [-78.67196, 36.09623]}}, {"type": "Feature", "properties": {"id": "HF_032", "name": "Community Health Facility 032", "type": "pharmacy", "beds": 60}, "geometry": {"type": "Point", "coordinates": [-78.67058, 36.13543]}}, {"type": "Feature", "properties": {"id": "HF_033", "name": "Community Health Facility 033", "type": "pharmacy", "beds": 0}, "geometry": {"type": "Point", "coordinates": [-78.22119, 36.07303]}}, {"type": "Feature", "properties": {"id": "HF_034", "name": "Community Health Facility 034", "type": "clinic", "beds": 0}, "geometry": {"type": "Point", "coordinates": [-78.19936, 36.14466]}}, {"type": "Feature", "properties": {"id": "HF_035", "name": "Community Health Facility 035", "type": "urgent_care", "beds": 60}, "geometry": {"type": "Point", "coordinates": [-78.17368, 36.14048]}}, {"type": "Feature", "properties": {"id": "HF_036", "name": "Community Health Facility 036", "type": "pharmacy", "beds": 0}, "geometry": {"type": "Point", "coordinates": [-77.67807, 36.17473]}}, {"type": "Feature", "properties": {"id": "HF_037", "name": "Community Health Facility 037", "type": "clinic", "beds": 60}, "geometry": {"type": "Point", "coordinates": [-77.29838, 36.1551]}}, {"type": "Feature", "properties": {"id": "HF_038", "name": "Community Health Facility 038", "type": "pharmacy", "beds": 0}, "geometry": {"type": "Point", "coordinates": [-77.24022, 36.15532]}}, {"type": "Feature", "properties": {"id": "HF_039", "name": "Community Health Facility 039", "type": "pharmacy", "beds": 0}, "geometry": {"type": "Point", "coordinates": [-77.23444, 36.04758]}}, {"type": "Feature", "properties": {"id": "HF_040", "name": "Community Health Facility 040", "type": "pharmacy", "beds": 25}, "geometry": {"type": "Point", "coordinates": [-76.89123, 36.07137]}}, {"type": "Feature", "properties": {"id": "HF_041", "name": "Community Health Facility 041", "type": "clinic", "beds": 0}, "geometry": {"type": "Point", "coordinates": [-76.78586, 36.08429]}}]}