{"type": "FeatureCollection", "features": [{"type": "Feature", "properties": {"id": "RD_EW_0", "class": "primary"}, "geometry": {"type": "LineString", "coordinates": [[-78.95, 35.08], [-76.65, 35.07111998722385]]}}, {"type": "Feature", "properties": {"id": "RD_EW_1", "class": "secondary"}, "geometry": {"type": "LineString", "coordinates": [[-78.95, 35.22], [-76.65, 35.26026402528441]]}}, {"type": "Feature", "properties": {"id": "RD_EW_2", "class": "secondary"}, "geometry": {"type": "LineString", "coordinates": [[-78.95, 35.36], [-76.65, 35.28706077696103]]}}, {"type": "Feature", "properties": {"id": "RD_EW_3", "class": "primary"}, "geometry": {"type": "LineString", "coordinates": [[-78.95, 35.5], [-76.65, 35.44155641610186]]}}, {"type": "Feature", "properties": {"id": "RD_EW_4", "class": "secondary"}, "geometry": {"type": "LineString", "coordinates": [[-78.95, 35.64], [-76.65, 35.590908315206775]]}}, {"type": "Feature", "properties": {"id": "RD_EW_5", "class": "secondary"}, "geometry": {"type": "LineString", "coordinates": [[-78.95, 35.78], [-76.65, 35.741017975567445]]}}, {"type": "Feature", "properties": {"id": "RD_EW_6", "class": "primary"}, "geometry": {"type": "LineString", "coordinates": [[-78.95, 35.92], [-76.65, 35.89632760487195]]}}, {"type": "Feature", "properties": {"id": "RD_EW_7", "class": "secondary"}, "geometry": {"type": "LineString", "coordinates": [[-78.95, 36.059999999999995], [-76.65, 36.023508776372275]]}}, {"type": "Feature", "properties": {"id": "RD_EW_8", "class": "secondary"}, "geometry": {"type": "LineString", "coordinates": [[-78.95, 36.199999999999996], [-76.65, 36.18948297337802]]}}, {"type": "Feature", "properties": {"id": "RD_NS_0", "class": "primary"}, "geometry": {"type": "LineString", "coordinates": [[-78.85000000000001, 34.95], [-78.8579642683265, 36.36]]}}, {"type": "Feature", "properties": {"id": "RD_NS_1", "class": "residential"}, "geometry": {"type": "LineString", "coordinates": [[-78.52000000000001, 34.95], [-78.55913791655185, 36.36]]}}, {"type": "Feature", "properties": {"id": "RD_NS_2", "class": "primary"}, "geometry": {"type": "LineString", "coordinates": [[-78.19000000000001, 34.95], [-78.23373912251718, 36.36]]}}, {"type": "Feature", "properties": {"id": "RD_NS_3", "class": "residential"}, "geometry": {"type": "LineString", "coordinates": [[-77.86000000000001, 34.95], [-77.87449385530722, 36.36]]}}, {"type": "Feature", "properties": {"id": "RD_NS_4", "class": "primary"}, "geometry": {"type": "LineString", "coordinates": [[-77.53000000000002, 34.95], [-77.57112110951329, 36.36]]}}, {"type": "Feature", "properties": {"id": "RD_NS_5", "class": "residential"}, "geometry": {"type": "LineString", "coordinates": [[-77.2, 34.95], [-77.20667996861229, 36.36]]}}, {"type": "Feature", "properties": {"id": "RD_NS_6", "class": "primary"}, "geometry": {"type": "LineString", "coordinates": [[-76.87, 34.95], [-76.91914387852272, 36.36]]}}]}